1 29155U 06018A   12022.11613900 -.00000264 +00000-0 +10000-3 0 09161
2 29155 000.3820 081.1033 0001661 309.9779 057.0379 01.00272575020777